{"fetched_at":"2026-07-13T18:17:19.024Z","source":"https://celestrak.org/NORAD/elements/gp.php?NAME=SPOT&FORMAT=JSON","constellation":"spot","records":[{"OBJECT_NAME":"SPOT 6","OBJECT_ID":"2012-047A","EPOCH":"2026-07-13T08:02:49.798176","CLASSIFICATION_TYPE":"U","MEAN_MOTION":14.58537635,"ECCENTRICITY":0.00011099,"INCLINATION":98.2115,"RA_OF_ASC_NODE":261.3364,"ARG_OF_PERICENTER":84.2588,"MEAN_ANOMALY":275.8738,"EPHEMERIS_TYPE":0,"NORAD_CAT_ID":38755,"ELEMENT_SET_NO":999,"REV_AT_EPOCH":73686,"BSTAR":0.000001962971,"MEAN_MOTION_DOT":-3.7e-7,"MEAN_MOTION_DDOT":0},{"OBJECT_NAME":"SPOT 7","OBJECT_ID":"2014-034A","EPOCH":"2026-07-13T06:37:00.427296","CLASSIFICATION_TYPE":"U","MEAN_MOTION":14.60979379,"ECCENTRICITY":0.00016083,"INCLINATION":98.0624,"RA_OF_ASC_NODE":256.0938,"ARG_OF_PERICENTER":96.5046,"MEAN_ANOMALY":263.6338,"EPHEMERIS_TYPE":0,"NORAD_CAT_ID":40053,"ELEMENT_SET_NO":999,"REV_AT_EPOCH":64094,"BSTAR":0.000018348648,"MEAN_MOTION_DOT":4.5e-7,"MEAN_MOTION_DDOT":0}]}
