SPOT 6                  
1 38755U 12047A   26194.33529859 -.00000037  00000+0  19630-5 0  9992
2 38755  98.2115 261.3364 0001109  84.2588 275.8738 14.58537635736864
SPOT 7                  
1 40053U 14034A   26194.27569939  .00000045  00000+0  18349-4 0  9993
2 40053  98.0624 256.0938 0001608  96.5046 263.6338 14.60979379640940
